OBJECT B                
1 51825U 22019B   25329.84450106  .00046552  00000+0  80648-3 0  9994
2 51825  97.3701  49.0455 0008983 149.6100 210.5674 15.50727683208027
